start=new Date('2023-01-10T00:00:00.000Z').valueOf();
sats=[{"CENTER_NAME":"EARTH","MEAN_MOTION_DDOT":"0.0000000000000","FILE":"3737263","ECCENTRICITY":"0.00018240","TIME_SYSTEM":"UTC","MEAN_ANOMALY":"283.6983","REF_FRAME":"TEME","APOAPSIS":"541.007","GP_ID":"222546384","BSTAR":"0.00002327100000","OBJECT_ID":"2022-083AH","RA_OF_ASC_NODE":"309.8361","COUNTRY_CODE":"US","OBJECT_NAME":"STARLINK-4104","TLE_LINE2":"2 53163  53.2164 309.8361 0001824  76.4212 283.6983 15.08840035 26975","PERIAPSIS":"538.483","RCS_SIZE":"LARGE","ARG_OF_PERICENTER":"76.4212","MEAN_ELEMENT_THEORY":"SGP4","MEAN_MOTION_DOT":"0.00000082","MEAN_MOTION":"15.08840035","ELEMENT_SET_NO":"999","INCLINATION":"53.2164","OBJECT_TYPE":"PAYLOAD","CLASSIFICATION_TYPE":"U","PERIOD":"95.438","TLE_LINE1":"1 53163U 22083AH  23009.53065348  .00000082  00000-0  23271-4 0  9990","DECAY_DATE":null,"REV_AT_EPOCH":"2697","LAUNCH_DATE":"2022-07-17","SITE":"AFETR","SEMIMAJOR_AXIS":"6917.880","EPHEMERIS_TYPE":"0","EPOCH":"2023-01-09T12:44:08.460672","NORAD_CAT_ID":"53163"},{"OBJECT_ID":"2022-083AJ","BSTAR":"0.00051852000000","GP_ID":"222546614","TLE_LINE2":"2 53164  53.2193 309.7874 0003115  42.4226 317.7006 15.08850833 26971","RCS_SIZE":"LARGE","PERIAPSIS":"537.557","OBJECT_NAME":"STARLINK-4116","COUNTRY_CODE":"US","RA_OF_ASC_NODE":"309.7874","ECCENTRICITY":"0.00031150","TIME_SYSTEM":"UTC","FILE":"3737263","CENTER_NAME":"EARTH","MEAN_MOTION_DDOT":"0.0000000000000","MEAN_ANOMALY":"317.7006","APOAPSIS":"541.867","REF_FRAME":"TEME","TLE_LINE1":"1 53164U 22083AJ  23009.54072568  .00007976  00000-0  51852-3 0  9998","PERIOD":"95.437","CLASSIFICATION_TYPE":"U","NORAD_CAT_ID":"53164","SITE":"AFETR","SEMIMAJOR_AXIS":"6917.847","EPHEMERIS_TYPE":"0","EPOCH":"2023-01-09T12:58:38.698752","DECAY_DATE":null,"REV_AT_EPOCH":"2697","LAUNCH_DATE":"2022-07-17","ELEMENT_SET_NO":"999","MEAN_MOTION":"15.08850833","MEAN_MOTION_DOT":"0.00007976","ARG_OF_PERICENTER":"42.4226","MEAN_ELEMENT_THEORY":"SGP4","OBJECT_TYPE":"PAYLOAD","INCLINATION":"53.2193"},{"LAUNCH_DATE":"2022-07-17","DECAY_DATE":null,"REV_AT_EPOCH":"2697","EPHEMERIS_TYPE":"0","SEMIMAJOR_AXIS":"6917.869","EPOCH":"2023-01-09T12:37:25.829760","SITE":"AFETR","NORAD_CAT_ID":"53165","CLASSIFICATION_TYPE":"U","PERIOD":"95.437","TLE_LINE1":"1 53165U 22083AK  23009.52599340  .00000409  00000-0  43806-4 0  9994","INCLINATION":"53.2175","OBJECT_TYPE":"PAYLOAD","MEAN_ELEMENT_THEORY":"SGP4","ARG_OF_PERICENTER":"34.0727","MEAN_MOTION":"15.08843837","MEAN_MOTION_DOT":"0.00000409","ELEMENT_SET_NO":"999","RA_OF_ASC_NODE":"309.8651","COUNTRY_CODE":"US","OBJECT_NAME":"STARLINK-4090","TLE_LINE2":"2 53165  53.2175 309.8651 0002362  34.0727 326.0417 15.08843837 26977","PERIAPSIS":"538.100","RCS_SIZE":"LARGE","GP_ID":"222547304","BSTAR":"0.00004380600000","OBJECT_ID":"2022-083AK","REF_FRAME":"TEME","APOAPSIS":"541.368","MEAN_ANOMALY":"326.0417","MEAN_MOTION_DDOT":"0.0000000000000","CENTER_NAME":"EARTH","FILE":"3737263","ECCENTRICITY":"0.00023620","TIME_SYSTEM":"UTC"},{"INCLINATION":"53.2153","OBJECT_TYPE":"PAYLOAD","MEAN_ELEMENT_THEORY":"SGP4","ARG_OF_PERICENTER":"36.5891","ELEMENT_SET_NO":"999","MEAN_MOTION_DOT":"0.00013305","MEAN_MOTION":"15.08841282","SEMIMAJOR_AXIS":"6917.876","EPOCH":"2023-01-09T12:48:03.081600","EPHEMERIS_TYPE":"0","SITE":"AFETR","LAUNCH_DATE":"2022-07-17","DECAY_DATE":null,"REV_AT_EPOCH":"2697","NORAD_CAT_ID":"53166","PERIOD":"95.437","CLASSIFICATION_TYPE":"U","TLE_LINE1":"1 53166U 22083AL  23009.53336900  .00013305  00000-0  85244-3 0  9997","APOAPSIS":"541.372","REF_FRAME":"TEME","MEAN_ANOMALY":"323.5262","FILE":"3737263","MEAN_MOTION_DDOT":"0.0000000000000","CENTER_NAME":"EARTH","ECCENTRICITY":"0.00023570","TIME_SYSTEM":"UTC","TLE_LINE2":"2 53166  53.2153 309.8301 0002357  36.5891 323.5262 15.08841282 26971","PERIAPSIS":"538.111","RCS_SIZE":"LARGE","COUNTRY_CODE":"US","RA_OF_ASC_NODE":"309.8301","OBJECT_NAME":"STARLINK-4110","BSTAR":"0.00085244000000","GP_ID":"222545694","OBJECT_ID":"2022-083AL"},{"ECCENTRICITY":"0.00018350","TIME_SYSTEM":"UTC","CENTER_NAME":"EARTH","MEAN_MOTION_DDOT":"0.0000000000000","FILE":"3737263","MEAN_ANOMALY":"314.2638","APOAPSIS":"540.949","REF_FRAME":"TEME","OBJECT_ID":"2022-083AM","GP_ID":"222545924","BSTAR":"0.00071875000000","COUNTRY_CODE":"US","RA_OF_ASC_NODE":"295.0597","OBJECT_NAME":"STARLINK-3683","TLE_LINE2":"2 53167  53.2185 295.0597 0001835  45.8505 314.2638 15.08861469 27160","RCS_SIZE":"LARGE","PERIAPSIS":"538.410","MEAN_MOTION":"15.08861469","MEAN_MOTION_DOT":"0.00011176","ELEMENT_SET_NO":"999","ARG_OF_PERICENTER":"45.8505","MEAN_ELEMENT_THEORY":"SGP4","OBJECT_TYPE":"PAYLOAD","INCLINATION":"53.2185","TLE_LINE1":"1 53167U 22083AM  23009.47866381  .00011176  00000-0  71875-3 0  9991","CLASSIFICATION_TYPE":"U","PERIOD":"95.436","NORAD_CAT_ID":"53167","REV_AT_EPOCH":"2716","DECAY_DATE":null,"LAUNCH_DATE":"2022-07-17","SITE":"AFETR","EPOCH":"2023-01-09T11:29:16.553184","SEMIMAJOR_AXIS":"6917.815","EPHEMERIS_TYPE":"0"},{"MEAN_MOTION_DDOT":"0.0000000000000","CENTER_NAME":"EARTH","FILE":"3737263","TIME_SYSTEM":"UTC","ECCENTRICITY":"0.00024790","APOAPSIS":"541.463","REF_FRAME":"TEME","MEAN_ANOMALY":"327.5487","GP_ID":"222547074","BSTAR":"0.00023027000000","OBJECT_ID":"2022-083AN","OBJECT_NAME":"STARLINK-4105","COUNTRY_CODE":"US","RA_OF_ASC_NODE":"309.8428","TLE_LINE2":"2 53168  53.2159 309.8428 0002479  32.5657 327.5487 15.08839280 26978","RCS_SIZE":"LARGE","PERIAPSIS":"538.033","MEAN_ELEMENT_THEORY":"SGP4","ARG_OF_PERICENTER":"32.5657","MEAN_MOTION_DOT":"0.00003378","MEAN_MOTION":"15.08839280","ELEMENT_SET_NO":"999","INCLINATION":"53.2159","OBJECT_TYPE":"PAYLOAD","CLASSIFICATION_TYPE":"U","PERIOD":"95.438","TLE_LINE1":"1 53168U 22083AN  23009.52968558  .00003378  00000-0  23027-3 0  9998","DECAY_DATE":null,"REV_AT_EPOCH":"2697","LAUNCH_DATE":"2022-07-17","EPHEMERIS_TYPE":"0","SEMIMAJOR_AXIS":"6917.883","EPOCH":"2023-01-09T12:42:44.834112","SITE":"AFETR","NORAD_CAT_ID":"53168"},{"TLE_LINE1":"1 53169U 22083AP  23009.49705643  .00001055  00000-0  84375-4 0  9993","PERIOD":"95.438","CLASSIFICATION_TYPE":"U","NORAD_CAT_ID":"53169","SEMIMAJOR_AXIS":"6917.886","EPHEMERIS_TYPE":"0","EPOCH":"2023-01-09T11:55:45.675552","SITE":"AFETR","DECAY_DATE":null,"LAUNCH_DATE":"2022-07-17","REV_AT_EPOCH":"2716","ELEMENT_SET_NO":"999","MEAN_MOTION_DOT":"0.00001055","MEAN_MOTION":"15.08838085","MEAN_ELEMENT_THEORY":"SGP4","ARG_OF_PERICENTER":"35.2724","OBJECT_TYPE":"PAYLOAD","INCLINATION":"53.2161","OBJECT_ID":"2022-083AP","BSTAR":"0.00008437500000","GP_ID":"222546844","TLE_LINE2":"2 53169  53.2161 294.9745 0002283  35.2724 324.8419 15.08838085 27165","PERIAPSIS":"538.172","RCS_SIZE":"LARGE","RA_OF_ASC_NODE":"294.9745","COUNTRY_CODE":"US","OBJECT_NAME":"STARLINK-4117","ECCENTRICITY":"0.00022830","TIME_SYSTEM":"UTC","FILE":"3737263","MEAN_MOTION_DDOT":"0.0000000000000","CENTER_NAME":"EARTH","REF_FRAME":"TEME","APOAPSIS":"541.331","MEAN_ANOMALY":"324.8419"},{"ARG_OF_PERICENTER":"35.9126","MEAN_ELEMENT_THEORY":"SGP4","MEAN_MOTION":"15.08836836","MEAN_MOTION_DOT":"-0.00000690","ELEMENT_SET_NO":"999","INCLINATION":"53.2202","OBJECT_TYPE":"PAYLOAD","CLASSIFICATION_TYPE":"U","PERIOD":"95.438","TLE_LINE1":"1 53170U 22083AQ  23009.23118291 -.00000690  00000-0 -25232-4 0  9997","LAUNCH_DATE":"2022-07-17","DECAY_DATE":null,"REV_AT_EPOCH":"2699","SITE":"AFETR","SEMIMAJOR_AXIS":"6917.890","EPHEMERIS_TYPE":"0","EPOCH":"2023-01-09T05:32:54.203424","NORAD_CAT_ID":"53170","CENTER_NAME":"EARTH","MEAN_MOTION_DDOT":"0.0000000000000","FILE":"3737263","ECCENTRICITY":"0.00025080","TIME_SYSTEM":"UTC","MEAN_ANOMALY":"324.2034","REF_FRAME":"TEME","APOAPSIS":"541.490","GP_ID":"222546155","BSTAR":"-0.00002523200000","OBJECT_ID":"2022-083AQ","COUNTRY_CODE":"US","RA_OF_ASC_NODE":"306.1741","OBJECT_NAME":"STARLINK-4095","RCS_SIZE":"LARGE","TLE_LINE2":"2 53170  53.2202 306.1741 0002508  35.9126 324.2034 15.08836836 26997","PERIAPSIS":"538.020"},{"OBJECT_ID":"2022-083AR","BSTAR":"-0.00007290600000","GP_ID":"222546385","PERIAPSIS":"538.638","TLE_LINE2":"2 53171  53.2160 279.8744 0001599  90.7025 269.4150 15.08840547 27372","RCS_SIZE":"LARGE","COUNTRY_CODE":"US","OBJECT_NAME":"STARLINK-4052","RA_OF_ASC_NODE":"279.8744","ECCENTRICITY":"0.00015990","TIME_SYSTEM":"UTC","FILE":"3737263","CENTER_NAME":"EARTH","MEAN_MOTION_DDOT":"0.0000000000000","MEAN_ANOMALY":"269.4150","REF_FRAME":"TEME","APOAPSIS":"540.850","TLE_LINE1":"1 53171U 22083AR  23009.46715133 -.00001448  00000-0 -72906-4 0  9993","PERIOD":"95.438","CLASSIFICATION_TYPE":"U","NORAD_CAT_ID":"53171","SITE":"AFETR","EPHEMERIS_TYPE":"0","SEMIMAJOR_AXIS":"6917.879","EPOCH":"2023-01-09T11:12:41.874912","DECAY_DATE":null,"REV_AT_EPOCH":"2737","LAUNCH_DATE":"2022-07-17","ELEMENT_SET_NO":"999","MEAN_MOTION_DOT":"-0.00001448","MEAN_MOTION":"15.08840547","ARG_OF_PERICENTER":"90.7025","MEAN_ELEMENT_THEORY":"SGP4","OBJECT_TYPE":"PAYLOAD","INCLINATION":"53.2160"},{"TLE_LINE1":"1 53172U 22083AS  23009.22751192  .00003406  00000-0  23192-3 0  9999","CLASSIFICATION_TYPE":"U","PERIOD":"95.437","NORAD_CAT_ID":"53172","DECAY_DATE":null,"LAUNCH_DATE":"2022-07-17","REV_AT_EPOCH":"2762","EPOCH":"2023-01-09T05:27:37.029888","SEMIMAJOR_AXIS":"6917.843","EPHEMERIS_TYPE":"0","SITE":"AFETR","MEAN_MOTION":"15.08852352","MEAN_MOTION_DOT":"0.00003406","ELEMENT_SET_NO":"999","MEAN_ELEMENT_THEORY":"SGP4","ARG_OF_PERICENTER":"64.7763","OBJECT_TYPE":"PAYLOAD","INCLINATION":"53.2178","OBJECT_ID":"2022-083AS","GP_ID":"222579985","BSTAR":"0.00023192000000","OBJECT_NAME":"STARLINK-4299","COUNTRY_CODE":"US","RA_OF_ASC_NODE":"306.1927","TLE_LINE2":"2 53172  53.2178 306.1927 0002142  64.7763 295.3451 15.08852352 27621","PERIAPSIS":"538.226","RCS_SIZE":"LARGE","ECCENTRICITY":"0.00021420","TIME_SYSTEM":"UTC","MEAN_MOTION_DDOT":"0.0000000000000","CENTER_NAME":"EARTH","FILE":"3737531","APOAPSIS":"541.189","REF_FRAME":"TEME","MEAN_ANOMALY":"295.3451"}];
